{
  "last_updated": "2026-07-17T06:00:03.250508",
  "satellites": {
    "98592": {
      "name": "DUTHSat-2",
      "norad_id": "98592",
      "tle": "1 64530U 25135C   26197.28568383  .00006643  00000-0  24914-3 0  9994\n2 64530  97.4651 313.2003 0006115  94.0080 266.1858 15.27557964 59379",
      "epoch": "2026-07-16T06:51:23.082912",
      "fetched_at": "2026-07-17T06:00:03.374638",
      "source": "satnogs"
    },
    "98530": {
      "name": "LAMARR",
      "norad_id": "98530",
      "tle": "1 66673U 25276H   26026.90917087  .00034524  00000-0  16680-2 0  9998\n2 66673  97.4301 102.8338 0007597 141.5941 218.5835 15.18529012  8972",
      "epoch": "2026-01-26T21:49:12.363168",
      "fetched_at": "2026-01-28T06:00:02.884758",
      "source": "satnogs",
      "note": "Using previous TLE (fetch/manual failed today)"
    },
    "98529": {
      "name": "DIRAC",
      "norad_id": "98529",
      "tle": "1 66681U 25276R   26026.63281774  .00024563  00000-0  11745-2 0  9993\n2 66681  97.4280 102.5712 0006320 148.4115 211.7500 15.18972786  8932",
      "epoch": "2026-01-26T15:11:15.452736",
      "fetched_at": "2026-01-28T06:00:02.937152",
      "source": "satnogs",
      "note": "Using previous TLE (fetch/manual failed today)"
    },
    "98518": {
      "name": "MICE-1",
      "norad_id": "98518",
      "tle": "1 66684U 25276U   26197.48794102  .00001981  00000-0  96866-4 0  9990\n2 66684  97.4262 270.6300 0003932 239.4838 120.6009 15.19377384 34861",
      "epoch": "2026-07-16T11:42:38.104128",
      "fetched_at": "2026-07-17T06:00:03.578028",
      "source": "satnogs"
    },
    "68416": {
      "name": "PeakSat",
      "norad_id": "68416",
      "tle": "1 68416U 26067A   26197.78835130  .00003124  00000-0  14903-3 0  9996\n2 68416  97.4565 156.0070 0003322 130.1456 230.0071 15.19819219 16446",
      "epoch": "2026-07-16T18:55:13.552320",
      "fetched_at": "2026-07-17T06:00:03.632078",
      "source": "satnogs"
    },
    "98370": {
      "name": "OptiSat",
      "norad_id": "98370",
      "tle": "1 69696U 69696    26089.46895426  .00000000  00000-0  00000-0 0 00004\n2 69696 097.4414 038.3720 0003145 156.7651 191.1423 15.18459822000011",
      "epoch": "2026-03-30T11:15:17.648064",
      "fetched_at": "2026-04-17T12:47:18.541523",
      "source": "manual"
    },
    "68468": {
      "name": "ERMIS-1",
      "norad_id": "68468",
      "tle": "1 68468U 26067BE  26197.45947962  .00004220  00000-0  20996-3 0  9991\n2 68468  97.4564 155.3893 0005403 334.6616  25.4352 15.18141615 16375",
      "epoch": "2026-07-16T11:01:39.039168",
      "fetched_at": "2026-07-17T06:00:03.688709",
      "source": "satnogs"
    },
    "68420": {
      "name": "ERMIS-2",
      "norad_id": "68420",
      "tle": "1 68420U 26067E   26197.44898515  .00005104  00000-0  23843-3 0  9993\n2 68420  97.4491 155.6049 0003303 107.7104 252.4492 15.20245705 16393",
      "epoch": "2026-07-16T10:46:32.316960",
      "fetched_at": "2026-07-17T06:00:03.746627",
      "source": "satnogs"
    },
    "98367": {
      "name": "ERMIS-3",
      "norad_id": "98367",
      "tle": "1 68425U 26067K   26197.69986198  .00003453  00000-0  16780-3 0  9997\n2 68425  97.4604 155.8797 0001432 140.4049 219.7290 15.19096138 16427",
      "epoch": "2026-07-16T16:47:48.075072",
      "fetched_at": "2026-07-17T06:00:03.799966",
      "source": "satnogs"
    },
    "69021": {
      "name": "Helios",
      "norad_id": "69021",
      "tle": "1 69021U 26100AT  26197.66182611  .00003893  00000-0  18195-3 0  9993\n2 69021  97.3988  94.8830 0002934 228.8557 131.2425 15.20371241 11287",
      "epoch": "2026-07-16T15:53:01.775904",
      "fetched_at": "2026-07-17T06:00:03.854346",
      "source": "satnogs"
    },
    "69020": {
      "name": "Selene",
      "norad_id": "69020",
      "tle": "1 69020U 26100AS  26197.66843634  .00003202  00000-0  15110-3 0  9999\n2 69020  97.4005  94.8922 0002585 214.9790 145.1276 15.20168228 11283",
      "epoch": "2026-07-16T16:02:32.899776",
      "fetched_at": "2026-07-17T06:00:03.942075",
      "source": "satnogs"
    }
  },
  "fetch_log": []
}